0 COSMOS 2251 DEB
1 34961U 93036AEQ 13282.66459780  .00037949  00000-0  31330-2 0  4523
2 34961 073.9039 277.9850 0066442 151.5213 208.9629 14.97068718243718
0 COSMOS 2251 DEB
1 34961U 93036AEQ 13283.39967077  .00042427  00000-0  34966-2 0  4533
2 34961 073.9043 276.4867 0066370 149.7621 210.7421 14.97111585243821
0 COSMOS 2251 DEB
1 34961U 93036AEQ 13283.66696333  .00043742  00000-0  36035-2 0  4548
2 34961 073.9043 275.9416 0066360 149.1322 211.3792 14.97120032243865
0 COSMOS 2251 DEB
1 34961U 93036AEQ 13285.67157510  .00033746  00000-0  27762-2 0  4551
2 34961 073.9040 271.8519 0066238 144.3991 216.1640 14.97239853244165
0 COSMOS 2251 DEB
1 34961U 93036AEQ 13287.27515156  .00035974  00000-0  29522-2 0  4565
2 34961 073.9028 268.5807 0066141 140.8197 219.7805 14.97325285244400
0 COSMOS 2251 DEB
1 34961U 93036AEQ 13289.34625059  .00049849  00000-0  40632-2 0  4571
2 34961 073.9030 264.3529 0066027 136.1460 224.4994 14.97506775244713
0 COSMOS 2251 DEB
1 34961U 93036AEQ 13290.34831104  .00049218  00000-0  40041-2 0  4588
2 34961 073.9035 262.3077 0066047 133.8821 226.7847 14.97582271244864
0 COSMOS 2251 DEB
1 34961U 93036AEQ 13291.28351920  .00044110  00000-0  35837-2 0  4599
2 34961 073.9037 260.3982 0066152 131.5863 229.1018 14.97657517245007
0 COSMOS 2251 DEB
1 34961U 93036AEQ 13292.88662742  .00045301  00000-0  36672-2 0  4606
2 34961 073.9038 257.1249 0066199 128.0305 232.6881 14.97785801245242
0 COSMOS 2251 DEB
1 34961U 93036AEQ 13293.88850197  .00045993  00000-0  37157-2 0  4617
2 34961 073.9042 255.0788 0066142 125.8640 234.8713 14.97861655245393
0 COSMOS 2251 DEB
1 34961U 93036AEQ 13295.22425214  .00056582  00000-0  45516-2 0  4620
2 34961 073.9040 252.3503 0066262 122.8127 237.9463 14.97959247245599
